{
  "norad_id": 65031,
  "name": "STARLINK-34677",
  "history": [
    {
      "epoch": "2026-03-28T14:44:30.381792",
      "apogee_km": 476.0770390691032,
      "perigee_km": 474.3116209184964,
      "latitude_deg": -32.40625187592226,
      "longitude_deg": 22.06709088012576,
      "semi_major_axis_km": 6853.3313299938,
      "eccentricity": 0.0001288,
      "inclination_deg": 53.1583,
      "raan_deg": 206.5572,
      "arg_perigee_deg": 85.9337,
      "mean_anomaly_deg": 274.1811,
      "mean_motion_rev_day": 15.30206946
    }
  ]
}